{"type": "FeatureCollection", "features": [ {"type": "Feature", "properties": {"norad_id": 30048, "name": "FENGYUN 1C DEB", "group": "fengyun-1c-debris", "lat": -53.91181445906764, "lon": -137.29427131232458, "alt_km": 890.2362459225806, "timestamp": "2025-12-10T14:53:37.365801+00:00", "meta": {"OBJECT_NAME": "FENGYUN 1C DEB", "OBJECT_ID": "1999-025NZ", "EPOCH": "2025-12-10T02:02:52.607904", "MEAN_MOTION": 13.79890812, "ECCENTRICITY": 0.01862618, "INCLINATION": 98.6668, "RA_OF_ASC_NODE": 210.1367, "ARG_OF_PERICENTER": 252.1267, "MEAN_ANOMALY": 273.9709, "EPHEMERIS_TYPE": 0, "CLASSIFICATION_TYPE": "U", "NORAD_CAT_ID": 30048, "ELEMENT_SET_NO": 999, "REV_AT_EPOCH": 95089, "BSTAR": 0.00038650373, "MEAN_MOTION_DOT": 4.16e-06, "MEAN_MOTION_DDOT": 0}, "tle": {"line1": "1 30048U 99025NZ  25344.08533111  .00000416  00000+0  38650-3 0  9995", "line2": "2 30048  98.6668 210.1367 0186261 252.1267 273.9709 13.79890812950895"}}, "geometry": {"type": "Point", "coordinates": [-137.29427131232458, -53.91181445906764]}}, {"type": "Feature", "properties": {"norad_id": 30050, "name": "FENGYUN 1C DEB", "group": "fengyun-1c-debris", "lat": -67.58039896062375, "lon": 108.52772157048395, "alt_km": 1058.8867075196713, "timestamp": "2025-12-10T14:53:37.365811+00:00", "meta": {"OBJECT_NAME": "FENGYUN 1C DEB", "OBJECT_ID": "1999-025PB", "EPOCH": "2025-12-09T20:29:52.652832", "MEAN_MOTION": 13.8503543, "ECCENTRICITY": 0.01716609, "INCLINATION": 96.8179, "RA_OF_ASC_NODE": 304.8257, "ARG_OF_PERICENTER": 38.3348, "MEAN_ANOMALY": 351.6438, "EPHEMERIS_TYPE": 0, "CLASSIFICATION_TYPE": "U", "NORAD_CAT_ID": 30050, "ELEMENT_SET_NO": 999, "REV_AT_EPOCH": 95162, "BSTAR": 0.0021320155, "MEAN_MOTION_DOT": 2.68e-05, "MEAN_MOTION_DDOT": 0}, "tle": {"line1": "1 30050U 99025PB  25343.85408163  .00002680  00000+0  21320-2 0  9990", "line2": "2 30050  96.8179 304.8257 0171660  38.3348 351.6438 13.85035430951624"}}, "geometry": {"type": "Point", "coordinates": [108.52772157048395, -67.58039896062375]}}, {"type": "Feature", "properties": {"norad_id": 30052, "name": "FENGYUN 1C DEB", "group": "fengyun-1c-debris", "lat": -75.75593029087176, "lon": 150.07569940975804, "alt_km": 797.1329013414788, "timestamp": "2025-12-10T14:53:37.365820+00:00", "meta": {"OBJECT_NAME": "FENGYUN 1C DEB", "OBJECT_ID": "1999-025PD", "EPOCH": "2025-12-09T13:54:31.747968", "MEAN_MOTION": 13.72954953, "ECCENTRICITY": 0.0288925, "INCLINATION": 99.2995, "RA_OF_ASC_NODE": 9.2613, "ARG_OF_PERICENTER": 240.5602, "MEAN_ANOMALY": 274.657, "EPHEMERIS_TYPE": 0, "CLASSIFICATION_TYPE": "U", "NORAD_CAT_ID": 30052, "ELEMENT_SET_NO": 999, "REV_AT_EPOCH": 94511, "BSTAR": 0.00074322, "MEAN_MOTION_DOT": 8.8e-06, "MEAN_MOTION_DDOT": 0}, "tle": {"line1": "1 30052U 99025PD  25343.57953412  .00000880  00000+0  74322-3 0  9994", "line2": "2 30052  99.2995   9.2613 0288925 240.5602 274.6570 13.72954953945118"}}, "geometry": {"type": "Point", "coordinates": [150.07569940975804, -75.75593029087176]}}, {"type": "Feature", "properties": {"norad_id": 30053, "name": "FENGYUN 1C DEB", "group": "fengyun-1c-debris", "lat": -67.5197402871895, "lon": 179.2598976066865, "alt_km": 772.1921423178728, "timestamp": "2025-12-10T14:53:37.365829+00:00", "meta": {"OBJECT_NAME": "FENGYUN 1C DEB", "OBJECT_ID": "1999-025PE", "EPOCH": "2025-12-09T10:12:17.108064", "MEAN_MOTION": 13.94110335, "ECCENTRICITY": 0.03316637, "INCLINATION": 98.5757, "RA_OF_ASC_NODE": 156.7617, "ARG_OF_PERICENTER": 347.629, "MEAN_ANOMALY": 70.2401, "EPHEMERIS_TYPE": 0, "CLASSIFICATION_TYPE": "U", "NORAD_CAT_ID": 30053, "ELEMENT_SET_NO": 999, "REV_AT_EPOCH": 94940, "BSTAR": 0.002095007, "MEAN_MOTION_DOT": 4.343e-05, "MEAN_MOTION_DDOT": 0}, "tle": {"line1": "1 30053U 99025PE  25343.42519801  .00004343  00000+0  20950-2 0  9994", "line2": "2 30053  98.5757 156.7617 0331663 347.6290  70.2401 13.94110335949400"}}, "geometry": {"type": "Point", "coordinates": [179.2598976066865, -67.5197402871895]}}, {"type": "Feature", "properties": {"norad_id": 30054, "name": "FENGYUN 1C DEB", "group": "fengyun-1c-debris", "lat": -35.02830026648158, "lon": -169.73830570904383, "alt_km": 1190.2126180639434, "timestamp": "2025-12-10T14:53:37.365839+00:00", "meta": {"OBJECT_NAME": "FENGYUN 1C DEB", "OBJECT_ID": "1999-025PF", "EPOCH": "2025-12-10T01:41:54.235104", "MEAN_MOTION": 13.69859991, "ECCENTRICITY": 0.02759618, "INCLINATION": 99.3718, "RA_OF_ASC_NODE": 16.3731, "ARG_OF_PERICENTER": 12.2008, "MEAN_ANOMALY": 14.6911, "EPHEMERIS_TYPE": 0, "CLASSIFICATION_TYPE": "U", "NORAD_CAT_ID": 30054, "ELEMENT_SET_NO": 999, "REV_AT_EPOCH": 94312, "BSTAR": 0.00073971903, "MEAN_MOTION_DOT": 8.04e-06, "MEAN_MOTION_DDOT": 0}, "tle": {"line1": "1 30054U 99025PF  25344.07076661  .00000804  00000+0  73972-3 0  9990", "line2": "2 30054  99.3718  16.3731 0275961  12.2008  14.6911 13.69859991943126"}}, "geometry": {"type": "Point", "coordinates": [-169.73830570904383, -35.02830026648158]}}, {"type": "Feature", "properties": {"norad_id": 30056, "name": "FENGYUN 1C DEB", "group": "fengyun-1c-debris", "lat": 54.119611444452715, "lon": 2.210146542612818, "alt_km": 979.6847462800661, "timestamp": "2025-12-10T14:53:37.365847+00:00", "meta": {"OBJECT_NAME": "FENGYUN 1C DEB", "OBJECT_ID": "1999-025PH", "EPOCH": "2025-12-10T00:16:42.786048", "MEAN_MOTION": 13.73954273, "ECCENTRICITY": 0.02998657, "INCLINATION": 98.3225, "RA_OF_ASC_NODE": 170.0041, "ARG_OF_PERICENTER": 218.1883, "MEAN_ANOMALY": 139.7684, "EPHEMERIS_TYPE": 0, "CLASSIFICATION_TYPE": "U", "NORAD_CAT_ID": 30056, "ELEMENT_SET_NO": 999, "REV_AT_EPOCH": 93938, "BSTAR": 0.0040478226, "MEAN_MOTION_DOT": 5.22e-05, "MEAN_MOTION_DDOT": 0}, "tle": {"line1": "1 30056U 99025PH  25344.01160632  .00005220  00000+0  40478-2 0  9999", "line2": "2 30056  98.3225 170.0041 0299865 218.1883 139.7684 13.73954273939382"}}, "geometry": {"type": "Point", "coordinates": [2.210146542612818, 54.119611444452715]}}, {"type": "Feature", "properties": {"norad_id": 30057, "name": "FENGYUN 1C DEB", "group": "fengyun-1c-debris", "lat": 18.56584586207579, "lon": 50.54836036127113, "alt_km": 1191.1016860784703, "timestamp": "2025-12-10T14:53:37.365857+00:00", "meta": {"OBJECT_NAME": "FENGYUN 1C DEB", "OBJECT_ID": "1999-025PJ", "EPOCH": "2025-12-10T04:28:37.118208", "MEAN_MOTION": 13.57112823, "ECCENTRICITY": 0.02926988, "INCLINATION": 98.883, "RA_OF_ASC_NODE": 53.1667, "ARG_OF_PERICENTER": 153.024, "MEAN_ANOMALY": 268.9862, "EPHEMERIS_TYPE": 0, "CLASSIFICATION_TYPE": "U", "NORAD_CAT_ID": 30057, "ELEMENT_SET_NO": 999, "REV_AT_EPOCH": 93201, "BSTAR": 0.001906328, "MEAN_MOTION_DOT": 1.756e-05, "MEAN_MOTION_DDOT": 0}, "tle": {"line1": "1 30057U 99025PJ  25344.18654072  .00001756  00000+0  19063-2 0  9990", "line2": "2 30057  98.8830  53.1667 0292698 153.0240 268.9862 13.57112823932011"}}, "geometry": {"type": "Point", "coordinates": [50.54836036127113, 18.56584586207579]}}, {"type": "Feature", "properties": {"norad_id": 30058, "name": "FENGYUN 1C DEB", "group": "fengyun-1c-debris", "lat": 24.741877542903232, "lon": 173.43237389771053, "alt_km": 842.7277393400063, "timestamp": "2025-12-10T14:53:37.365866+00:00", "meta": {"OBJECT_NAME": "FENGYUN 1C DEB", "OBJECT_ID": "1999-025PK", "EPOCH": "2025-12-08T23:14:05.784000", "MEAN_MOTION": 13.48231633, "ECCENTRICITY": 0.0315694, "INCLINATION": 99.6493, "RA_OF_ASC_NODE": 347.3377, "ARG_OF_PERICENTER": 161.7381, "MEAN_ANOMALY": 256.931, "EPHEMERIS_TYPE": 0, "CLASSIFICATION_TYPE": "U", "NORAD_CAT_ID": 30058, "ELEMENT_SET_NO": 999, "REV_AT_EPOCH": 92797, "BSTAR": 0.00072673, "MEAN_MOTION_DOT": 5.69e-06, "MEAN_MOTION_DDOT": 0}, "tle": {"line1": "1 30058U 99025PK  25342.96812250  .00000569  00000+0  72673-3 0  9997", "line2": "2 30058  99.6493 347.3377 0315694 161.7381 256.9310 13.48231633927971"}}, "geometry": {"type": "Point", "coordinates": [173.43237389771053, 24.741877542903232]}}, {"type": "Feature", "properties": {"norad_id": 30059, "name": "FENGYUN 1C DEB", "group": "fengyun-1c-debris", "lat": -28.793001828393894, "lon": -14.942226766572974, "alt_km": 868.6040688251078, "timestamp": "2025-12-10T14:53:37.365875+00:00", "meta": {"OBJECT_NAME": "FENGYUN 1C DEB", "OBJECT_ID": "1999-025PL", "EPOCH": "2025-12-09T23:06:42.290208", "MEAN_MOTION": 13.45491925, "ECCENTRICITY": 0.03267329, "INCLINATION": 98.8223, "RA_OF_ASC_NODE": 339.5823, "ARG_OF_PERICENTER": 309.7443, "MEAN_ANOMALY": 76.2596, "EPHEMERIS_TYPE": 0, "CLASSIFICATION_TYPE": "U", "NORAD_CAT_ID": 30059, "ELEMENT_SET_NO": 999, "REV_AT_EPOCH": 92760, "BSTAR": 0.0005826472, "MEAN_MOTION_DOT": 4.37e-06, "MEAN_MOTION_DDOT": 0}, "tle": {"line1": "1 30059U 99025PL  25343.96298947  .00000437  00000+0  58265-3 0  9995", "line2": "2 30059  98.8223 339.5823 0326732 309.7443  76.2596 13.45491925927609"}}, "geometry": {"type": "Point", "coordinates": [-14.942226766572974, -28.793001828393894]}}, {"type": "Feature", "properties": {"norad_id": 30060, "name": "FENGYUN 1C DEB", "group": "fengyun-1c-debris", "lat": -45.13232104787468, "lon": 21.979533633909355, "alt_km": 1320.0200037828663, "timestamp": "2025-12-10T14:53:37.365884+00:00", "meta": {"OBJECT_NAME": "FENGYUN 1C DEB", "OBJECT_ID": "1999-025PM", "EPOCH": "2025-12-09T04:25:56.722656", "MEAN_MOTION": 13.43738637, "ECCENTRICITY": 0.03443817, "INCLINATION": 99.3141, "RA_OF_ASC_NODE": 210.138, "ARG_OF_PERICENTER": 80.477, "MEAN_ANOMALY": 40.7816, "EPHEMERIS_TYPE": 0, "CLASSIFICATION_TYPE": "U", "NORAD_CAT_ID": 30060, "ELEMENT_SET_NO": 999, "REV_AT_EPOCH": 92195, "BSTAR": 0.0025828437, "MEAN_MOTION_DOT": 2.086e-05, "MEAN_MOTION_DDOT": 0}, "tle": {"line1": "1 30060U 99025PM  25343.18468429  .00002086  00000+0  25828-2 0  9995", "line2": "2 30060  99.3141 210.1380 0344381  80.4770  40.7816 13.43738637921959"}}, "geometry": {"type": "Point", "coordinates": [21.979533633909355, -45.13232104787468]}}]}